{
  "type": "FeatureCollection",
  "features": [
    {
      "type": "Feature",
      "properties": {
        "norad_id": 29961,
        "name": "FENGYUN 1C DEB",
        "group": "fengyun-1c-debris",
        "lat": 79.33366150941906,
        "lon": 176.92204951060052,
        "alt_km": 836.4799804596532,
        "timestamp": "2025-12-12T07:43:20.786059+00:00",
        "meta_object_name": "FENGYUN 1C DEB",
        "meta_object_id": "1999-025KK",
        "meta_epoch": "2025-12-11T16:10:30.888768",
        "meta_mean_motion": 14.26212945,
        "meta_eccentricity": 0.00741834,
        "meta_inclination": 98.9485,
        "meta_ra_of_asc_node": 233.041,
        "meta_arg_of_pericenter": 308.0088,
        "meta_mean_anomaly": 51.4409,
        "meta_ephemeris_type": 0,
        "meta_classification_type": "U",
        "meta_norad_cat_id": 29961,
        "meta_element_set_no": 999,
        "meta_rev_at_epoch": 98294,
        "meta_bstar": 0.00030950576,
        "meta_mean_motion_dot": 7.16e-06,
        "meta_mean_motion_ddot": 0,
        "tle_line1": "1 29961U 99025KK  25345.67396862  .00000716  00000+0  30951-3 0  9992",
        "tle_line2": "2 29961  98.9485 233.0410 0074183 308.0088  51.4409 14.26212945982946"
      },
      "geometry": {
        "type": "Point",
        "coordinates": [
          176.92204951060052,
          79.33366150941906
        ]
      }
    },
    {
      "type": "Feature",
      "properties": {
        "norad_id": 29962,
        "name": "FENGYUN 1C DEB",
        "group": "fengyun-1c-debris",
        "lat": -72.39795235927075,
        "lon": 23.61784428251363,
        "alt_km": 839.537506530638,
        "timestamp": "2025-12-12T07:43:20.786069+00:00",
        "meta_object_name": "FENGYUN 1C DEB",
        "meta_object_id": "1999-025KL",
        "meta_epoch": "2025-12-11T23:41:03.656832",
        "meta_mean_motion": 14.07156092,
        "meta_eccentricity": 0.01096789,
        "meta_inclination": 98.7685,
        "meta_ra_of_asc_node": 354.1829,
        "meta_arg_of_pericenter": 223.3559,
        "meta_mean_anomaly": 165.1983,
        "meta_ephemeris_type": 0,
        "meta_classification_type": "U",
        "meta_norad_cat_id": 29962,
        "meta_element_set_no": 999,
        "meta_rev_at_epoch": 96987,
        "meta_bstar": 0.00019786625,
        "meta_mean_motion_dot": 3.07e-06,
        "meta_mean_motion_ddot": 0,
        "tle_line1": "1 29962U 99025KL  25345.98684788  .00000307  00000+0  19787-3 0  9994",
        "tle_line2": "2 29962  98.7685 354.1829 0109678 223.3559 165.1983 14.07156092969872"
      },
      "geometry": {
        "type": "Point",
        "coordinates": [
          23.61784428251363,
          -72.39795235927075
        ]
      }
    },
    {
      "type": "Feature",
      "properties": {
        "norad_id": 29963,
        "name": "FENGYUN 1C DEB",
        "group": "fengyun-1c-debris",
        "lat": 74.80143701424164,
        "lon": -165.4105369108389,
        "alt_km": 812.0967433748019,
        "timestamp": "2025-12-12T07:43:20.786080+00:00",
        "meta_object_name": "FENGYUN 1C DEB",
        "meta_object_id": "1999-025KM",
        "meta_epoch": "2025-12-11T21:53:28.758624",
        "meta_mean_motion": 14.29456331,
        "meta_eccentricity": 0.0051566,
        "meta_inclination": 98.9981,
        "meta_ra_of_asc_node": 229.8467,
        "meta_arg_of_pericenter": 304.6612,
        "meta_mean_anomaly": 185.8546,
        "meta_ephemeris_type": 0,
        "meta_classification_type": "U",
        "meta_norad_cat_id": 29963,
        "meta_element_set_no": 999,
        "meta_rev_at_epoch": 98131,
        "meta_bstar": 0.0011600583,
        "meta_mean_motion_dot": 2.957e-05,
        "meta_mean_motion_ddot": 0,
        "tle_line1": "1 29963U 99025KM  25345.91213841  .00002957  00000+0  11601-2 0  9995",
        "tle_line2": "2 29963  98.9981 229.8467 0051566 304.6612 185.8546 14.29456331981315"
      },
      "geometry": {
        "type": "Point",
        "coordinates": [
          -165.4105369108389,
          74.80143701424164
        ]
      }
    },
    {
      "type": "Feature",
      "properties": {
        "norad_id": 29964,
        "name": "FENGYUN 1C DEB",
        "group": "fengyun-1c-debris",
        "lat": 12.391866304940338,
        "lon": -172.99348802021865,
        "alt_km": 903.8686973730682,
        "timestamp": "2025-12-12T07:43:20.786090+00:00",
        "meta_object_name": "FENGYUN 1C DEB",
        "meta_object_id": "1999-025KN",
        "meta_epoch": "2025-12-11T12:49:54.903936",
        "meta_mean_motion": 14.02738338,
        "meta_eccentricity": 0.0130804,
        "meta_inclination": 98.3711,
        "meta_ra_of_asc_node": 188.1365,
        "meta_arg_of_pericenter": 272.9644,
        "meta_mean_anomaly": 85.6562,
        "meta_ephemeris_type": 0,
        "meta_classification_type": "U",
        "meta_norad_cat_id": 29964,
        "meta_element_set_no": 999,
        "meta_rev_at_epoch": 96300,
        "meta_bstar": 0.0014789473,
        "meta_mean_motion_dot": 2.424e-05,
        "meta_mean_motion_ddot": 0,
        "tle_line1": "1 29964U 99025KN  25345.53466324  .00002424  00000+0  14789-2 0  9999",
        "tle_line2": "2 29964  98.3711 188.1365 0130804 272.9644  85.6562 14.02738338963002"
      },
      "geometry": {
        "type": "Point",
        "coordinates": [
          -172.99348802021865,
          12.391866304940338
        ]
      }
    },
    {
      "type": "Feature",
      "properties": {
        "norad_id": 29965,
        "name": "FENGYUN 1C DEB",
        "group": "fengyun-1c-debris",
        "lat": 45.732045078403154,
        "lon": 170.28096578258013,
        "alt_km": 857.0275030310149,
        "timestamp": "2025-12-12T07:43:20.786100+00:00",
        "meta_object_name": "FENGYUN 1C DEB",
        "meta_object_id": "1999-025KP",
        "meta_epoch": "2025-12-11T22:50:20.265216",
        "meta_mean_motion": 13.95775534,
        "meta_eccentricity": 0.01461284,
        "meta_inclination": 98.9626,
        "meta_ra_of_asc_node": 340.6037,
        "meta_arg_of_pericenter": 70.1544,
        "meta_mean_anomaly": 2.9204,
        "meta_ephemeris_type": 0,
        "meta_classification_type": "U",
        "meta_norad_cat_id": 29965,
        "meta_element_set_no": 999,
        "meta_rev_at_epoch": 96265,
        "meta_bstar": 0.00028168411,
        "meta_mean_motion_dot": 3.78e-06,
        "meta_mean_motion_ddot": 0,
        "tle_line1": "1 29965U 99025KP  25345.95162344  .00000378  00000+0  28168-3 0  9994",
        "tle_line2": "2 29965  98.9626 340.6037 0146128  70.1544   2.9204 13.95775534962653"
      },
      "geometry": {
        "type": "Point",
        "coordinates": [
          170.28096578258013,
          45.732045078403154
        ]
      }
    },
    {
      "type": "Feature",
      "properties": {
        "norad_id": 29966,
        "name": "FENGYUN 1C DEB",
        "group": "fengyun-1c-debris",
        "lat": -67.31879910599574,
        "lon": -143.1542410530165,
        "alt_km": 797.0915045986467,
        "timestamp": "2025-12-12T07:43:20.786111+00:00",
        "meta_object_name": "FENGYUN 1C DEB",
        "meta_object_id": "1999-025KQ",
        "meta_epoch": "2025-12-11T11:50:01.686048",
        "meta_mean_motion": 14.25749421,
        "meta_eccentricity": 0.00396722,
        "meta_inclination": 99.4915,
        "meta_ra_of_asc_node": 192.352,
        "meta_arg_of_pericenter": 348.9596,
        "meta_mean_anomaly": 11.0707,
        "meta_ephemeris_type": 0,
        "meta_classification_type": "U",
        "meta_norad_cat_id": 29966,
        "meta_element_set_no": 999,
        "meta_rev_at_epoch": 98025,
        "meta_bstar": 0.0005990918,
        "meta_mean_motion_dot": 1.383e-05,
        "meta_mean_motion_ddot": 0,
        "tle_line1": "1 29966U 99025KQ  25345.49307507  .00001383  00000+0  59909-3 0  9990",
        "tle_line2": "2 29966  99.4915 192.3520 0039672 348.9596  11.0707 14.25749421980253"
      },
      "geometry": {
        "type": "Point",
        "coordinates": [
          -143.1542410530165,
          -67.31879910599574
        ]
      }
    },
    {
      "type": "Feature",
      "properties": {
        "norad_id": 29967,
        "name": "FENGYUN 1C DEB",
        "group": "fengyun-1c-debris",
        "lat": 69.00487310546428,
        "lon": -93.08072642523821,
        "alt_km": 860.8843792596617,
        "timestamp": "2025-12-12T07:43:20.786121+00:00",
        "meta_object_name": "FENGYUN 1C DEB",
        "meta_object_id": "1999-025KR",
        "meta_epoch": "2025-12-11T11:01:07.070304",
        "meta_mean_motion": 14.23580089,
        "meta_eccentricity": 0.00758724,
        "meta_inclination": 98.8647,
        "meta_ra_of_asc_node": 62.0547,
        "meta_arg_of_pericenter": 296.2277,
        "meta_mean_anomaly": 74.2149,
        "meta_ephemeris_type": 0,
        "meta_classification_type": "U",
        "meta_norad_cat_id": 29967,
        "meta_element_set_no": 999,
        "meta_rev_at_epoch": 97204,
        "meta_bstar": 0.0026351959,
        "meta_mean_motion_dot": 6.141e-05,
        "meta_mean_motion_ddot": 0,
        "tle_line1": "1 29967U 99025KR  25345.45910961  .00006141  00000+0  26352-2 0  9993",
        "tle_line2": "2 29967  98.8647  62.0547 0075872 296.2277  74.2149 14.23580089972044"
      },
      "geometry": {
        "type": "Point",
        "coordinates": [
          -93.08072642523821,
          69.00487310546428
        ]
      }
    }
  ]
}